{"type": "FeatureCollection", "features": [ {"type": "Feature", "properties": {"norad_id": 41836, "name": "HIMAWARI-9", "group": "weather", "lat": -0.022664498434836904, "lon": -77.1681588728876, "alt_km": 35780.6857423574, "timestamp": "2025-12-14T03:55:52.436572+00:00", "meta": {"OBJECT_NAME": "HIMAWARI-9", "OBJECT_ID": "2016-064A", "EPOCH": "2025-12-12T22:42:33.992928", "MEAN_MOTION": 1.00273884, "ECCENTRICITY": 0.00011859, "INCLINATION": 0.0371, "RA_OF_ASC_NODE": 95.8596, "ARG_OF_PERICENTER": 177.2098, "MEAN_ANOMALY": 290.2335, "EPHEMERIS_TYPE": 0, "CLASSIFICATION_TYPE": "U", "NORAD_CAT_ID": 41836, "ELEMENT_SET_NO": 999, "REV_AT_EPOCH": 3334, "BSTAR": 0, "MEAN_MOTION_DOT": -2.62e-06, "MEAN_MOTION_DDOT": 0}, "tle": {"line1": "1 41836U 16064A   25346.94622677 -.00000262  00000+0  00000+0 0  9991", "line2": "2 41836   0.0371  95.8596 0001185 177.2098 290.2335  1.00273884 33346"}}, "geometry": {"type": "Point", "coordinates": [-77.1681588728876, -0.022664498434836904]}}, {"type": "Feature", "properties": {"norad_id": 41866, "name": "GOES 16", "group": "weather", "lat": -0.038073474696756704, "lon": 37.395978995028635, "alt_km": 35795.637851770516, "timestamp": "2025-12-14T03:55:52.436585+00:00", "meta": {"OBJECT_NAME": "GOES 16", "OBJECT_ID": "2016-071A", "EPOCH": "2025-12-13T05:15:52.570944", "MEAN_MOTION": 1.00271588, "ECCENTRICITY": 0.00032114, "INCLINATION": 0.0645, "RA_OF_ASC_NODE": 105.1351, "ARG_OF_PERICENTER": 158.0077, "MEAN_ANOMALY": 153.3057, "EPHEMERIS_TYPE": 0, "CLASSIFICATION_TYPE": "U", "NORAD_CAT_ID": 41866, "ELEMENT_SET_NO": 999, "REV_AT_EPOCH": 3323, "BSTAR": 0, "MEAN_MOTION_DOT": -7.7e-07, "MEAN_MOTION_DDOT": 0}, "tle": {"line1": "1 41866U 16071A   25347.21935846 -.00000077  00000+0  00000+0 0  9992", "line2": "2 41866   0.0645 105.1351 0003211 158.0077 153.3057  1.00271588 33230"}}, "geometry": {"type": "Point", "coordinates": [37.395978995028635, -0.038073474696756704]}}, {"type": "Feature", "properties": {"norad_id": 41882, "name": "FENGYUN 4A", "group": "weather", "lat": -0.13375874100256063, "lon": -94.10217005837525, "alt_km": 35770.669638507934, "timestamp": "2025-12-14T03:55:52.436597+00:00", "meta": {"OBJECT_NAME": "FENGYUN 4A", "OBJECT_ID": "2016-077A", "EPOCH": "2025-12-12T22:37:46.187616", "MEAN_MOTION": 1.00269597, "ECCENTRICITY": 0.00048299, "INCLINATION": 1.85, "RA_OF_ASC_NODE": 82.3882, "ARG_OF_PERICENTER": 145.9325, "MEAN_ANOMALY": 316.8328, "EPHEMERIS_TYPE": 0, "CLASSIFICATION_TYPE": "U", "NORAD_CAT_ID": 41882, "ELEMENT_SET_NO": 999, "REV_AT_EPOCH": 3306, "BSTAR": 0, "MEAN_MOTION_DOT": -3.44e-06, "MEAN_MOTION_DDOT": 0}, "tle": {"line1": "1 41882U 16077A   25346.94289569 -.00000344  00000+0  00000+0 0  9996", "line2": "2 41882   1.8500  82.3882 0004829 145.9325 316.8328  1.00269597 33064"}}, "geometry": {"type": "Point", "coordinates": [-94.10217005837525, -0.13375874100256063]}}, {"type": "Feature", "properties": {"norad_id": 41884, "name": "CYGFM05", "group": "weather", "lat": 16.600928523754384, "lon": 63.08705663807865, "alt_km": 426.59032020877294, "timestamp": "2025-12-14T03:55:52.436609+00:00", "meta": {"OBJECT_NAME": "CYGFM05", "OBJECT_ID": "2016-078A", "EPOCH": "2025-12-13T06:07:45.147360", "MEAN_MOTION": 15.47665037, "ECCENTRICITY": 0.00101459, "INCLINATION": 34.9603, "RA_OF_ASC_NODE": 43.7625, "ARG_OF_PERICENTER": 187.9762, "MEAN_ANOMALY": 172.08, "EPHEMERIS_TYPE": 0, "CLASSIFICATION_TYPE": "U", "NORAD_CAT_ID": 41884, "ELEMENT_SET_NO": 999, "REV_AT_EPOCH": 49984, "BSTAR": 0.00054479677, "MEAN_MOTION_DOT": 0.00029126, "MEAN_MOTION_DDOT": 0}, "tle": {"line1": "1 41884U 16078A   25347.25538365  .00029126  00000+0  54480-3 0  9998", "line2": "2 41884  34.9603  43.7625 0010145 187.9762 172.0800 15.47665037499846"}}, "geometry": {"type": "Point", "coordinates": [63.08705663807865, 16.600928523754384]}}, {"type": "Feature", "properties": {"norad_id": 41885, "name": "CYGFM04", "group": "weather", "lat": -33.823067673741576, "lon": -61.14903721210459, "alt_km": 414.20980822970614, "timestamp": "2025-12-14T03:55:52.436619+00:00", "meta": {"OBJECT_NAME": "CYGFM04", "OBJECT_ID": "2016-078B", "EPOCH": "2025-12-13T06:37:30.522144", "MEAN_MOTION": 15.50389934, "ECCENTRICITY": 0.00095529, "INCLINATION": 34.9357, "RA_OF_ASC_NODE": 18.3891, "ARG_OF_PERICENTER": 215.1635, "MEAN_ANOMALY": 144.8457, "EPHEMERIS_TYPE": 0, "CLASSIFICATION_TYPE": "U", "NORAD_CAT_ID": 41885, "ELEMENT_SET_NO": 999, "REV_AT_EPOCH": 50002, "BSTAR": 0.00056607475, "MEAN_MOTION_DOT": 0.00033335, "MEAN_MOTION_DDOT": 0}, "tle": {"line1": "1 41885U 16078B   25347.27604771  .00033335  00000+0  56607-3 0  9996", "line2": "2 41885  34.9357  18.3891 0009552 215.1635 144.8457 15.50389934500020"}}, "geometry": {"type": "Point", "coordinates": [-61.14903721210459, -33.823067673741576]}}, {"type": "Feature", "properties": {"norad_id": 41886, "name": "CYGFM02", "group": "weather", "lat": -28.471659412535367, "lon": -40.08421828455539, "alt_km": 411.77827706298285, "timestamp": "2025-12-14T03:55:52.436629+00:00", "meta": {"OBJECT_NAME": "CYGFM02", "OBJECT_ID": "2016-078C", "EPOCH": "2025-12-13T06:33:27.876384", "MEAN_MOTION": 15.51771085, "ECCENTRICITY": 0.00112018, "INCLINATION": 34.9445, "RA_OF_ASC_NODE": 16.7266, "ARG_OF_PERICENTER": 215.0334, "MEAN_ANOMALY": 144.9653, "EPHEMERIS_TYPE": 0, "CLASSIFICATION_TYPE": "U", "NORAD_CAT_ID": 41886, "ELEMENT_SET_NO": 999, "REV_AT_EPOCH": 50015, "BSTAR": 0.00058830143, "MEAN_MOTION_DOT": 0.00036444, "MEAN_MOTION_DDOT": 0}, "tle": {"line1": "1 41886U 16078C   25347.27323931  .00036444  00000+0  58830-3 0  9997", "line2": "2 41886  34.9445  16.7266 0011201 215.0334 144.9653 15.51771085500152"}}, "geometry": {"type": "Point", "coordinates": [-40.08421828455539, -28.471659412535367]}}, {"type": "Feature", "properties": {"norad_id": 41887, "name": "CYGFM01", "group": "weather", "lat": 33.92032014069195, "lon": 114.55995231755011, "alt_km": 417.82732510072583, "timestamp": "2025-12-14T03:55:52.436640+00:00", "meta": {"OBJECT_NAME": "CYGFM01", "OBJECT_ID": "2016-078D", "EPOCH": "2025-12-13T05:56:04.457184", "MEAN_MOTION": 15.4824451, "ECCENTRICITY": 0.00097332, "INCLINATION": 34.9433, "RA_OF_ASC_NODE": 46.1619, "ARG_OF_PERICENTER": 179.9881, "MEAN_ANOMALY": 180.0842, "EPHEMERIS_TYPE": 0, "CLASSIFICATION_TYPE": "U", "NORAD_CAT_ID": 41887, "ELEMENT_SET_NO": 999, "REV_AT_EPOCH": 49978, "BSTAR": 0.00055476046, "MEAN_MOTION_DOT": 0.00030269, "MEAN_MOTION_DDOT": 0}, "tle": {"line1": "1 41887U 16078D   25347.24727381  .00030269  00000+0  55476-3 0  9994", "line2": "2 41887  34.9433  46.1619 0009733 179.9881 180.0842 15.48244510499782"}}, "geometry": {"type": "Point", "coordinates": [114.55995231755011, 33.92032014069195]}}, {"type": "Feature", "properties": {"norad_id": 41888, "name": "CYGFM08", "group": "weather", "lat": 25.290886302163017, "lon": 160.56258079107852, "alt_km": 411.9717003397409, "timestamp": "2025-12-14T03:55:52.436651+00:00", "meta": {"OBJECT_NAME": "CYGFM08", "OBJECT_ID": "2016-078E", "EPOCH": "2025-12-13T05:43:01.029504", "MEAN_MOTION": 15.49449618, "ECCENTRICITY": 0.00116383, "INCLINATION": 34.9466, "RA_OF_ASC_NODE": 29.2071, "ARG_OF_PERICENTER": 203.5468, "MEAN_ANOMALY": 156.4723, "EPHEMERIS_TYPE": 0, "CLASSIFICATION_TYPE": "U", "NORAD_CAT_ID": 41888, "ELEMENT_SET_NO": 999, "REV_AT_EPOCH": 50001, "BSTAR": 0.0005552213, "MEAN_MOTION_DOT": 0.00031641, "MEAN_MOTION_DDOT": 0}, "tle": {"line1": "1 41888U 16078E   25347.23820636  .00031641  00000+0  55522-3 0  9998", "line2": "2 41888  34.9466  29.2071 0011638 203.5468 156.4723 15.49449618500016"}}, "geometry": {"type": "Point", "coordinates": [160.56258079107852, 25.290886302163017]}}, {"type": "Feature", "properties": {"norad_id": 41890, "name": "CYGFM07", "group": "weather", "lat": 28.885620798397134, "lon": 139.931875222473, "alt_km": 412.85408609954993, "timestamp": "2025-12-14T03:55:52.436662+00:00", "meta": {"OBJECT_NAME": "CYGFM07", "OBJECT_ID": "2016-078G", "EPOCH": "2025-12-13T05:45:54.414432", "MEAN_MOTION": 15.50032511, "ECCENTRICITY": 0.00099023, "INCLINATION": 34.9483, "RA_OF_ASC_NODE": 18.1725, "ARG_OF_PERICENTER": 219.9798, "MEAN_ANOMALY": 140.0196, "EPHEMERIS_TYPE": 0, "CLASSIFICATION_TYPE": "U", "NORAD_CAT_ID": 41890, "ELEMENT_SET_NO": 999, "REV_AT_EPOCH": 50003, "BSTAR": 0.0005605892, "MEAN_MOTION_DOT": 0.00032594, "MEAN_MOTION_DDOT": 0}, "tle": {"line1": "1 41890U 16078G   25347.24021313  .00032594  00000+0  56059-3 0  9991", "line2": "2 41890  34.9483  18.1725 0009902 219.9798 140.0196 15.50032511500036"}}, "geometry": {"type": "Point", "coordinates": [139.931875222473, 28.885620798397134]}}, {"type": "Feature", "properties": {"norad_id": 41891, "name": "CYGFM03", "group": "weather", "lat": -23.075912369806254, "lon": -23.565012965158157, "alt_km": 419.19905606560405, "timestamp": "2025-12-14T03:55:52.436672+00:00", "meta": {"OBJECT_NAME": "CYGFM03", "OBJECT_ID": "2016-078H", "EPOCH": "2025-12-13T06:28:32.550816", "MEAN_MOTION": 15.49933775, "ECCENTRICITY": 0.00093551, "INCLINATION": 34.9439, "RA_OF_ASC_NODE": 19.8967, "ARG_OF_PERICENTER": 208.0713, "MEAN_ANOMALY": 151.9505, "EPHEMERIS_TYPE": 0, "CLASSIFICATION_TYPE": "U", "NORAD_CAT_ID": 41891, "ELEMENT_SET_NO": 999, "REV_AT_EPOCH": 50001, "BSTAR": 0.00056195744, "MEAN_MOTION_DOT": 0.00032552, "MEAN_MOTION_DDOT": 0}, "tle": {"line1": "1 41891U 16078H   25347.26982119  .00032552  00000+0  56196-3 0  9990", "line2": "2 41891  34.9439  19.8967 0009355 208.0713 151.9505 15.49933775500015"}}, "geometry": {"type": "Point", "coordinates": [-23.565012965158157, -23.075912369806254]}}]}